[{"OBJECT_NAME":"STARLINK-34369","OBJECT_ID":"2025-123G","EPOCH":"2026-03-09T17:36:43.094304","MEAN_MOTION":14.98333066,"ECCENTRICITY":0.00038672,"INCLINATION":70.002,"RA_OF_ASC_NODE":194.4002,"ARG_OF_PERICENTER":269.3151,"MEAN_ANOMALY":90.7565,"EPHEMERIS_TYPE":0,"CLASSIFICATION_TYPE":"U","NORAD_CAT_ID":64297,"ELEMENT_SET_NO":999,"REV_AT_EPOCH":4162,"BSTAR":0.00032177252,"MEAN_MOTION_DOT":3.749e-5,"MEAN_MOTION_DDOT":0},{"OBJECT_NAME":"FTV 3502","OBJECT_ID":"1962-039A","EPOCH":"2026-03-09T21:41:26.705184","MEAN_MOTION":14.91961609,"ECCENTRICITY":0.00806549,"INCLINATION":98.4622,"RA_OF_ASC_NODE":145.9901,"ARG_OF_PERICENTER":91.4356,"MEAN_ANOMALY":269.6102,"EPHEMERIS_TYPE":0,"CLASSIFICATION_TYPE":"U","NORAD_CAT_ID":369,"ELEMENT_SET_NO":999,"REV_AT_EPOCH":40080,"BSTAR":0.00025514942,"MEAN_MOTION_DOT":2.681e-5,"MEAN_MOTION_DDOT":0}]
